[{"OBJECT_NAME":"KUIPER-00261","OBJECT_ID":"2025-301AB","EPOCH":"2026-03-09T22:00:01.999584","MEAN_MOTION":14.84563292,"ECCENTRICITY":0.00102753,"INCLINATION":51.9001,"RA_OF_ASC_NODE":69.3185,"ARG_OF_PERICENTER":68.6185,"MEAN_ANOMALY":64.2752,"EPHEMERIS_TYPE":0,"CLASSIFICATION_TYPE":"U","NORAD_CAT_ID":67158,"ELEMENT_SET_NO":999,"REV_AT_EPOCH":496,"BSTAR":-0.0036247241,"MEAN_MOTION_DOT":-0.00031011,"MEAN_MOTION_DDOT":0},{"OBJECT_NAME":"NOAA 17 DEB","OBJECT_ID":"2002-032BF","EPOCH":"2026-03-09T07:02:00.601728","MEAN_MOTION":14.87780819,"ECCENTRICITY":0.00089717,"INCLINATION":98.702,"RA_OF_ASC_NODE":93.8516,"ARG_OF_PERICENTER":243.9708,"MEAN_ANOMALY":116.0582,"EPHEMERIS_TYPE":0,"CLASSIFICATION_TYPE":"U","NORAD_CAT_ID":48722,"ELEMENT_SET_NO":999,"REV_AT_EPOCH":26307,"BSTAR":0.0035728172,"MEAN_MOTION_DOT":0.00032718,"MEAN_MOTION_DDOT":0}]
